ONEWEB-0134             
1 47280U 20100Y   24115.56060823 -.00000113  00000+0 -34984-3 0  9994
2 47280  87.8944 146.6610 0002137 104.1023 256.0343 13.12440904161921
ONEWEB-0135             
1 47281U 20100Z   24115.52886071  .00000338  00000+0  90447-3 0  9995
2 47281  87.8952 146.6796 0002057 100.0531 260.0830 13.12445188161943
ONEWEB-0136             
1 47282U 20100AA  24115.55108239 -.00000616  00000+0 -17475-2 0  9992
2 47282  87.8954 146.6451 0002502 110.9303 249.2093 13.12443762161874
ONEWEB-0137             
1 47283U 20100AB  24115.58443810 -.00000361  00000+0 -10388-2 0  9996
2 47283  87.8945 146.6646 0002207  97.7443 262.3936 13.12442860161780
ONEWEB-0138             
1 47284U 20100AC  24115.64003576 -.00000165  00000+0 -49445-3 0  9994
2 47284  87.8944 146.6654 0002078  97.2886 262.8479 13.12443368161872
ONEWEB-0139             
1 47285U 20100AD  24115.53521341  .00000398  00000+0  10718-2 0  9994
2 47285  87.8951 146.6572 0002020  95.3102 264.8257 13.12443253161933
ONEWEB-0140             
1 47286U 20100AE  24115.55744589  .00000018  00000+0  13742-4 0  9999
2 47286  87.8945 146.6574 0002115  98.9406 261.1961 13.12442261161907
ONEWEB-0141             
1 47287U 20100AF  24115.65352244 -.00000402  00000+0 -11516-2 0  9998
2 47287  87.8948 146.6378 0001985  90.5067 269.6289 13.12443510161902
